{
  "type": "FeatureCollection",
  "features": [
    {
      "type": "Feature",
      "properties": {
        "norad_id": 33412,
        "name": "COSMO-SKYMED 3",
        "group": "resource",
        "lat": 25.653539619511438,
        "lon": 17.843219232142733,
        "alt_km": 540.2857148448684,
        "timestamp": "2025-12-09T16:56:36.236753+00:00",
        "meta_object_name": "COSMO-SKYMED 3",
        "meta_object_id": "2008-054A",
        "meta_epoch": "2025-12-09T13:04:13.329408",
        "meta_mean_motion": 15.05300892,
        "meta_eccentricity": 0.0015929,
        "meta_inclination": 97.8458,
        "meta_ra_of_asc_node": 193.882,
        "meta_arg_of_pericenter": 185.0233,
        "meta_mean_anomaly": 175.0836,
        "meta_ephemeris_type": 0,
        "meta_classification_type": "U",
        "meta_norad_cat_id": 33412,
        "meta_element_set_no": 999,
        "meta_rev_at_epoch": 92839,
        "meta_bstar": 0.00030457,
        "meta_mean_motion_dot": 4.303e-05,
        "meta_mean_motion_ddot": 0,
        "tle_line1": "1 33412U 08054A   25343.54459872  .00004303  00000+0  30457-3 0  9992",
        "tle_line2": "2 33412  97.8458 193.8820 0015929 185.0233 175.0836 15.05300892928399"
      },
      "geometry": {
        "type": "Point",
        "coordinates": [
          17.843219232142733,
          25.653539619511438
        ]
      }
    },
    {
      "type": "Feature",
      "properties": {
        "norad_id": 33446,
        "name": "YAOGAN-4",
        "group": "resource",
        "lat": 22.24455755208301,
        "lon": -89.4282564483919,
        "alt_km": 614.2633860164888,
        "timestamp": "2025-12-09T16:56:36.236764+00:00",
        "meta_object_name": "YAOGAN-4",
        "meta_object_id": "2008-061A",
        "meta_epoch": "2025-12-09T10:21:49.775040",
        "meta_mean_motion": 14.82667366,
        "meta_eccentricity": 0.0013862,
        "meta_inclination": 97.9179,
        "meta_ra_of_asc_node": 273.5635,
        "meta_arg_of_pericenter": 334.6053,
        "meta_mean_anomaly": 25.4478,
        "meta_ephemeris_type": 0,
        "meta_classification_type": "U",
        "meta_norad_cat_id": 33446,
        "meta_element_set_no": 999,
        "meta_rev_at_epoch": 91754,
        "meta_bstar": 0.00036362,
        "meta_mean_motion_dot": 2.883e-05,
        "meta_mean_motion_ddot": 0,
        "tle_line1": "1 33446U 08061A   25343.43182610  .00002883  00000+0  36362-3 0  9990",
        "tle_line2": "2 33446  97.9179 273.5635 0013862 334.6053  25.4478 14.82667366917544"
      },
      "geometry": {
        "type": "Point",
        "coordinates": [
          -89.4282564483919,
          22.24455755208301
        ]
      }
    },
    {
      "type": "Feature",
      "properties": {
        "norad_id": 33492,
        "name": "GOSAT (IBUKI)",
        "group": "resource",
        "lat": -58.53542779261796,
        "lon": -101.0665242901149,
        "alt_km": 676.6209860944136,
        "timestamp": "2025-12-09T16:56:36.236774+00:00",
        "meta_object_name": "GOSAT (IBUKI)",
        "meta_object_id": "2009-002A",
        "meta_epoch": "2025-12-09T07:40:26.125248",
        "meta_mean_motion": 14.67545588,
        "meta_eccentricity": 9.52e-05,
        "meta_inclination": 98.0769,
        "meta_ra_of_asc_node": 91.9706,
        "meta_arg_of_pericenter": 87.6966,
        "meta_mean_anomaly": 272.4348,
        "meta_ephemeris_type": 0,
        "meta_classification_type": "U",
        "meta_norad_cat_id": 33492,
        "meta_element_set_no": 999,
        "meta_rev_at_epoch": 90361,
        "meta_bstar": 0.00031399,
        "meta_mean_motion_dot": 1.733e-05,
        "meta_mean_motion_ddot": 0,
        "tle_line1": "1 33492U 09002A   25343.31974682  .00001733  00000+0  31399-3 0  9990",
        "tle_line2": "2 33492  98.0769  91.9706 0000952  87.6966 272.4348 14.67545588903614"
      },
      "geometry": {
        "type": "Point",
        "coordinates": [
          -101.0665242901149,
          -58.53542779261796
        ]
      }
    },
    {
      "type": "Feature",
      "properties": {
        "norad_id": 35681,
        "name": "DEIMOS-1",
        "group": "resource",
        "lat": -55.89626802193972,
        "lon": -47.097853943564836,
        "alt_km": 654.0925056710639,
        "timestamp": "2025-12-09T16:56:36.236786+00:00",
        "meta_object_name": "DEIMOS-1",
        "meta_object_id": "2009-041A",
        "meta_epoch": "2025-12-09T12:37:03.758880",
        "meta_mean_motion": 14.74944275,
        "meta_eccentricity": 0.0002716,
        "meta_inclination": 97.7147,
        "meta_ra_of_asc_node": 144.2784,
        "meta_arg_of_pericenter": 84.5608,
        "meta_mean_anomaly": 275.5911,
        "meta_ephemeris_type": 0,
        "meta_classification_type": "U",
        "meta_norad_cat_id": 35681,
        "meta_element_set_no": 999,
        "meta_rev_at_epoch": 87892,
        "meta_bstar": 0.00014579,
        "meta_mean_motion_dot": 9.32e-06,
        "meta_mean_motion_ddot": 0,
        "tle_line1": "1 35681U 09041A   25343.52573795  .00000932  00000+0  14579-3 0  9999",
        "tle_line2": "2 35681  97.7147 144.2784 0002716  84.5608 275.5911 14.74944275878928"
      },
      "geometry": {
        "type": "Point",
        "coordinates": [
          -47.097853943564836,
          -55.89626802193972
        ]
      }
    },
    {
      "type": "Feature",
      "properties": {
        "norad_id": 35682,
        "name": "DUBAISAT-1",
        "group": "resource",
        "lat": 4.663690160818276,
        "lon": -64.91392301191254,
        "alt_km": 654.7833854209603,
        "timestamp": "2025-12-09T16:56:36.236797+00:00",
        "meta_object_name": "DUBAISAT-1",
        "meta_object_id": "2009-041B",
        "meta_epoch": "2025-12-09T08:00:29.522592",
        "meta_mean_motion": 14.74589657,
        "meta_eccentricity": 0.0009787,
        "meta_inclination": 97.9789,
        "meta_ra_of_asc_node": 114.0638,
        "meta_arg_of_pericenter": 326.349,
        "meta_mean_anomaly": 33.7096,
        "meta_ephemeris_type": 0,
        "meta_classification_type": "U",
        "meta_norad_cat_id": 35682,
        "meta_element_set_no": 999,
        "meta_rev_at_epoch": 87711,
        "meta_bstar": 0.00037991,
        "meta_mean_motion_dot": 2.483e-05,
        "meta_mean_motion_ddot": 0,
        "tle_line1": "1 35682U 09041B   25343.33367503  .00002483  00000+0  37991-3 0  9993",
        "tle_line2": "2 35682  97.9789 114.0638 0009787 326.3490  33.7096 14.74589657877114"
      },
      "geometry": {
        "type": "Point",
        "coordinates": [
          -64.91392301191254,
          4.663690160818276
        ]
      }
    },
    {
      "type": "Feature",
      "properties": {
        "norad_id": 35931,
        "name": "OCEANSAT-2",
        "group": "resource",
        "lat": 81.7547648083231,
        "lon": -109.16311686141289,
        "alt_km": 878.2066985530455,
        "timestamp": "2025-12-09T16:56:36.236808+00:00",
        "meta_object_name": "OCEANSAT-2",
        "meta_object_id": "2009-051A",
        "meta_epoch": "2025-12-09T11:21:59.746752",
        "meta_mean_motion": 13.99625445,
        "meta_eccentricity": 0.0016339,
        "meta_inclination": 98.2225,
        "meta_ra_of_asc_node": 344.4055,
        "meta_arg_of_pericenter": 53.5819,
        "meta_mean_anomaly": 306.6852,
        "meta_ephemeris_type": 0,
        "meta_classification_type": "U",
        "meta_norad_cat_id": 35931,
        "meta_element_set_no": 999,
        "meta_rev_at_epoch": 85279,
        "meta_bstar": -6.9659e-05,
        "meta_mean_motion_dot": -1.39e-06,
        "meta_mean_motion_ddot": 0,
        "tle_line1": "1 35931U 09051A   25343.47360818 -.00000139  00000+0 -69659-4 0  9993",
        "tle_line2": "2 35931  98.2225 344.4055 0016339  53.5819 306.6852 13.99625445852798"
      },
      "geometry": {
        "type": "Point",
        "coordinates": [
          -109.16311686141289,
          81.7547648083231
        ]
      }
    },
    {
      "type": "Feature",
      "properties": {
        "norad_id": 35946,
        "name": "WORLDVIEW-2 (WV-2)",
        "group": "resource",
        "lat": 22.92066831242704,
        "lon": -121.55239346422746,
        "alt_km": 765.3388656650795,
        "timestamp": "2025-12-09T16:56:36.236819+00:00",
        "meta_object_name": "WORLDVIEW-2 (WV-2)",
        "meta_object_id": "2009-055A",
        "meta_epoch": "2025-12-09T11:12:22.860000",
        "meta_mean_motion": 14.37650732,
        "meta_eccentricity": 0.0005364,
        "meta_inclination": 98.4763,
        "meta_ra_of_asc_node": 54.5967,
        "meta_arg_of_pericenter": 74.8439,
        "meta_mean_anomaly": 285.3341,
        "meta_ephemeris_type": 0,
        "meta_classification_type": "U",
        "meta_norad_cat_id": 35946,
        "meta_element_set_no": 999,
        "meta_rev_at_epoch": 84838,
        "meta_bstar": 0.00013302,
        "meta_mean_motion_dot": 3.56e-06,
        "meta_mean_motion_ddot": 0,
        "tle_line1": "1 35946U 09055A   25343.46693125  .00000356  00000+0  13302-3 0  9994",
        "tle_line2": "2 35946  98.4763  54.5967 0005364  74.8439 285.3341 14.37650732848380"
      },
      "geometry": {
        "type": "Point",
        "coordinates": [
          -121.55239346422746,
          22.92066831242704
        ]
      }
    }
  ]
}